OBJECT_NAME,OBJECT_ID,EPOCH,MEAN_MOTION,ECCENTRICITY,INCLINATION,RA_OF_ASC_NODE,ARG_OF_PERICENTER,MEAN_ANOMALY,EPHEMERIS_TYPE,CLASSIFICATION_TYPE,NORAD_CAT_ID,ELEMENT_SET_NO,REV_AT_EPOCH,BSTAR,MEAN_MOTION_DOT,MEAN_MOTION_DDOT
2026-132E,2026-132E,2026-06-16T02:27:04.179744,14.93489850,.0002703,97.6686,230.7850,316.7154,43.3853,0,U,69506,999,61,.39617E-3,.4114E-4,0
2026-132F,2026-132F,2026-06-13T09:58:10.881408,15.01040982,.00109152,97.6869,228.1362,319.8335,40.2082,0,U,69507,999,20,.25250362E-3,.317E-4,0
2026-134A,2026-134A,2026-06-15T11:09:05.104224,15.09188774,.0014098,97.7021,236.5591,278.2998,81.6631,0,U,69538,999,5,.50207E-4,.733E-5,0
2026-134B,2026-134B,2026-06-15T11:09:02.414592,15.09347764,.0014612,97.6968,236.5585,281.1430,78.8156,0,U,69539,999,4,.91586E-4,.1398E-4,0
2026-134C,2026-134C,2026-06-15T11:09:02.101824,15.09376098,.0013934,97.6941,236.5578,282.6149,77.3521,0,U,69540,999,4,.91654E-4,.14E-4,0
2026-134D,2026-134D,2026-06-15T11:09:00.751392,15.09439091,.0014889,97.7030,236.5599,281.4998,78.4559,0,U,69541,999,4,.91343E-4,.1398E-4,0
2026-134E,2026-134E,2026-06-15T11:09:00.474048,15.09464710,.00147791,97.7040,236.5599,282.3968,77.5607,0,U,69542,999,4,.91299059E-4,.1398E-4,0
2026-134F,2026-134F,2026-06-15T11:08:59.978976,15.09516651,.0013819,97.7019,236.5590,284.4873,75.4822,0,U,69543,999,4,.91379E-4,.1401E-4,0
2026-134G,2026-134G,2026-06-15T11:08:58.246656,15.09594108,.0014434,97.7020,236.5610,281.7021,78.2587,0,U,69544,999,4,.91199E-4,.1402E-4,0
2026-134H,2026-134H,2026-06-15T11:08:57.359328,15.09652511,.001422,97.7024,236.5609,285.6282,74.3377,0,U,69545,999,3,.91048E-4,.1402E-4,0
